NORAD_CAT_ID,OBJECT_NAME,OBJECT_TYPE,EPOCH,MEAN_MOTION,ECCENTRICITY,INCLINATION,RA_OF_ASC_NODE,ARG_OF_PERICENTER,MEAN_ANOMALY,BSTAR,MEAN_MOTION_DOT,MEAN_MOTION_DDOT,TLE_LINE0,TLE_LINE1,TLE_LINE2,SEMIMAJOR_AXIS,PERIOD,APOGEE,PERIGEE,DECAYED
55633.0,STARLINK-5498,PAYLOAD,2023-11-13 20:57:18,14.98338967,0.0002681,69.9992,179.567,270.0776,90.0076,-5.8073e-05,-7.86e-06,0.0,0 STARLINK-5498,1 55633U 23021F   23317.87312501 -.00000786  00000-0 -58073-4 0  9993,2 55633  69.9992 179.5670 0002681 270.0776  90.0076 14.98338967 41150,6950.165,96.106,573.894,570.167,0.0
55633.0,STARLINK-5498,PAYLOAD,2023-11-14 14:34:47,14.98324165,0.0002909,69.9994,177.7152,268.8794,91.2032,0.00012925,1.449e-05,0.0,0 STARLINK-5498,1 55633U 23021F   23318.60748845  .00001449  00000-0  12925-3 0  9999,2 55633  69.9994 177.7152 0002909 268.8794  91.2032 14.98324165 41560,6950.211,96.107,574.098,570.054,0.0
55633.0,STARLINK-5498,PAYLOAD,2023-11-14 20:59:18,14.98334554,0.0002866,69.9995,177.042,269.105,90.9781,7.5099e-06,-3e-08,0.0,0 STARLINK-5498,1 55633U 23021F   23318.87452430 -.00000003  00000-0  75099-5 0  9999,2 55633  69.9995 177.0420 0002866 269.1050  90.9781 14.98334554 41608,6950.179,96.107,574.036,570.052,0.0
55633.0,STARLINK-5498,PAYLOAD,2023-11-15 00:11:35,14.98332632,0.0002912,69.9993,176.7053,268.9754,91.1072,-1.7995e-05,-3.08e-06,0.0,0 STARLINK-5498,1 55633U 23021F   23319.00804577 -.00000308  00000-0 -17995-4 0  9997,2 55633  69.9993 176.7053 0002912 268.9754  91.1072 14.98332632 41627,6950.185,96.107,574.074,570.026,0.0
55633.0,STARLINK-5498,PAYLOAD,2023-11-16 00:13:36,14.9833167,0.0002949,69.9994,174.1808,269.0312,91.0509,2.5717e-05,2.14e-06,0.0,0 STARLINK-5498,1 55633U 23021F   23320.00944482  .00000214  00000-0  25717-4 0  9994,2 55633  69.9994 174.1808 0002949 269.0312  91.0509 14.98331670 41478,6950.188,96.107,574.102,570.003,0.0
55633.0,STARLINK-5498,PAYLOAD,2023-11-16 21:03:21,14.98327453,0.0003035,69.9988,171.9927,269.5888,90.4923,1.1481e-05,4.4e-07,0.0,0 STARLINK-5498,1 55633U 23021F   23320.87732780  .00000044  00000-0  11481-4 0  9999,2 55633  69.9988 171.9927 0003035 269.5888  90.4923 14.98327453 41903,6950.201,96.107,574.175,569.956,0.0
55633.0,STARLINK-5498,PAYLOAD,2023-11-17 00:15:37,14.98329039,0.000302,69.9987,171.6558,269.6094,90.4719,2.6256e-05,2.2e-06,0.0,0 STARLINK-5498,1 55633U 23021F   23321.01084653  .00000220  00000-0  26256-4 0  9997,2 55633  69.9987 171.6558 0003020 269.6094  90.4719 14.98329039 41627,6950.196,96.107,574.16,569.962,0.0
55633.0,STARLINK-5498,PAYLOAD,2023-11-17 22:41:29,14.98331518,0.0003018,70.0003,169.2988,272.7779,87.3035,8.8365e-05,9.62e-06,0.0,0 STARLINK-5498,1 55633U 23021F   23321.94548286  .00000962  00000-0  88365-4 0  9998,2 55633  70.0003 169.2988 0003018 272.7779  87.3035 14.98331518 42061,6950.188,96.107,574.151,569.956,0.0
55633.0,STARLINK-5498,PAYLOAD,2023-11-18 00:17:37,14.98331071,0.0003023,70.0002,169.1305,272.6793,87.402,8.3075e-05,8.98e-06,0.0,0 STARLINK-5498,1 55633U 23021F   23322.01224322  .00000898  00000-0  83075-4 0  9990,2 55633  70.0002 169.1305 0003023 272.6793  87.4020 14.98331071 41779,6950.19,96.107,574.156,569.954,0.0
55633.0,STARLINK-5498,PAYLOAD,2023-11-19 00:19:38,14.98331918,0.0003016,69.9999,166.6059,272.5825,87.4989,4.127e-05,3.99e-06,0.0,0 STARLINK-5498,1 55633U 23021F   23323.01364291  .00000399  00000-0  41270-4 0  9998,2 55633  69.9999 166.6059 0003016 272.5825  87.4989 14.98331918 41927,6950.187,96.107,574.148,569.956,0.0
55633.0,STARLINK-5498,PAYLOAD,2023-11-19 13:08:43,14.98331329,0.0002909,70.0,165.2596,272.4534,87.6292,1.764e-05,1.17e-06,0.0,0 STARLINK-5498,1 55633U 23021F   23323.54772372  .00000117  00000-0  17640-4 0  9991,2 55633  70.0000 165.2596 0002909 272.4534  87.6292 14.98331329 42308,6950.189,96.107,574.076,570.032,0.0
55633.0,STARLINK-5498,PAYLOAD,2023-11-19 21:09:23,14.98331721,0.0002887,69.9987,164.418,270.7594,89.3234,9.8539e-06,2.5e-07,0.0,0 STARLINK-5498,1 55633U 23021F   23323.88152284  .00000025  00000-0  98539-5 0  9997,2 55633  69.9987 164.4180 0002887 270.7594  89.3234 14.98331721 42357,6950.188,96.107,574.059,570.046,0.0
55633.0,STARLINK-5498,PAYLOAD,2023-11-20 06:46:11,14.98332029,0.0002898,69.9987,163.408,270.9303,89.1524,1.0792e-05,3.6e-07,0.0,0 STARLINK-5498,1 55633U 23021F   23324.28208237  .00000036  00000-0  10792-4 0  9998,2 55633  69.9987 163.4080 0002898 270.9303  89.1524 14.98332029 42113,6950.187,96.107,574.066,570.037,0.0
55633.0,STARLINK-5498,PAYLOAD,2023-11-20 14:46:52,14.9833295,0.000292,69.9984,162.5665,271.1165,88.9659,5.8363e-05,6.03e-06,0.0,0 STARLINK-5498,1 55633U 23021F   23324.61587965  .00000603  00000-0  58363-4 0  9999,2 55633  69.9984 162.5665 0002920 271.1165  88.9659 14.98332950 42461,6950.184,96.107,574.078,570.019,0.0
55633.0,STARLINK-5498,PAYLOAD,2023-11-20 21:11:24,14.9833302,0.0002929,69.9985,161.8932,271.1008,88.9816,5.4177e-05,5.54e-06,0.0,0 STARLINK-5498,1 55633U 23021F   23324.88291918  .00000554  00000-0  54177-4 0  9992,2 55633  69.9985 161.8932 0002929 271.1008  88.9816 14.98333020 42505,6950.184,96.107,574.084,570.013,0.0
55633.0,STARLINK-5498,PAYLOAD,2023-11-21 06:48:12,14.9832995,0.0002897,69.9986,160.8833,271.0361,89.0466,1.9144e-05,1.35e-06,0.0,0 STARLINK-5498,1 55633U 23021F   23325.28348198  .00000135  00000-0  19144-4 0  9990,2 55633  69.9986 160.8833 0002897 271.0361  89.0466 14.98329950 42263,6950.193,96.107,574.072,570.045,0.0
55633.0,STARLINK-5498,PAYLOAD,2023-11-21 13:12:45,14.98329457,0.0002885,69.9985,160.2101,270.8237,89.2592,1.1853e-05,4.8e-07,0.0,0 STARLINK-5498,1 55633U 23021F   23325.55052276  .00000048  00000-0  11853-4 0  9991,2 55633  69.9985 160.2101 0002885 270.8237  89.2592 14.98329457 42602,6950.195,96.107,574.065,570.054,0.0
55633.0,STARLINK-5498,PAYLOAD,2023-11-21 21:13:25,14.98330555,0.0002885,69.9984,159.3683,270.6484,89.4344,2.5763e-05,2.14e-06,0.0,0 STARLINK-5498,1 55633U 23021F   23325.88432195  .00000214  00000-0  25763-4 0  9999,2 55633  69.9984 159.3683 0002885 270.6484  89.4344 14.98330555 42650,6950.191,96.107,574.061,570.051,0.0
55633.0,STARLINK-5498,PAYLOAD,2023-11-22 14:50:53,14.98334438,0.0002874,69.9985,157.5169,270.95,89.133,3.6837e-05,3.47e-06,0.0,0 STARLINK-5498,1 55633U 23021F   23326.61867882  .00000347  00000-0  36837-4 0  9997,2 55633  69.9985 157.5169 0002874 270.9500  89.1330 14.98334438 42768,6950.179,96.107,574.042,570.047,0.0
55633.0,STARLINK-5498,PAYLOAD,2023-11-22 19:39:17,14.98335874,0.0002845,69.9985,157.0116,270.3192,89.7641,5.7879e-05,5.98e-06,0.0,0 STARLINK-5498,1 55633U 23021F   23326.81895689  .00000598  00000-0  57879-4 0  9992,2 55633  69.9985 157.0116 0002845 270.3192  89.7641 14.98335874 42490,6950.175,96.107,574.017,570.062,0.0
55633.0,STARLINK-5498,PAYLOAD,2023-11-22 21:15:25,14.98335595,0.0002846,69.9985,156.8433,270.3029,89.7804,5.6405e-05,5.8e-06,0.0,0 STARLINK-5498,1 55633U 23021F   23326.88571734  .00000580  00000-0  56405-4 0  9996,2 55633  69.9985 156.8433 0002846 270.3029  89.7804 14.98335595 42805,6950.176,96.107,574.019,570.063,0.0
55633.0,STARLINK-5498,PAYLOAD,2023-11-23 11:40:38,14.98330621,0.0002805,69.9984,155.3281,269.996,90.0878,4.3055e-05,4.21e-06,0.0,0 STARLINK-5498,1 55633U 23021F   23327.48656019  .00000421  00000-0  43055-4 0  9994,2 55633  69.9984 155.3281 0002805 269.9960  90.0878 14.98330621 42599,6950.191,96.107,574.005,570.106,0.0
55633.0,STARLINK-5498,PAYLOAD,2023-11-23 13:16:46,14.98330245,0.0002802,69.9984,155.1596,269.5651,90.5187,3.6677e-05,3.45e-06,0.0,0 STARLINK-5498,1 55633U 23021F   23327.55332054  .00000345  00000-0  36677-4 0  9999,2 55633  69.9984 155.1596 0002802 269.5651  90.5187 14.98330245 42901,6950.192,96.107,574.005,570.11,0.0
55633.0,STARLINK-5498,PAYLOAD,2023-11-23 21:17:27,14.98327537,0.0002735,69.9986,154.3181,266.96,93.1246,2.9608e-05,2.6e-06,0.0,0 STARLINK-5498,1 55633U 23021F   23327.88712254  .00000260  00000-0  29608-4 0  9991,2 55633  69.9986 154.3181 0002735 266.9600  93.1246 14.98327537 42954,6950.201,96.107,573.966,570.165,0.0
55633.0,STARLINK-5498,PAYLOAD,2023-11-24 11:42:39,14.98332524,0.0002803,69.9985,152.8031,270.7344,89.3494,2.1711e-05,1.66e-06,0.0,0 STARLINK-5498,1 55633U 23021F   23328.48796022  .00000166  00000-0  21711-4 0  9995,2 55633  69.9985 152.8031 0002803 270.7344  89.3494 14.98332524 42745,6950.185,96.107,573.998,570.102,0.0
55633.0,STARLINK-5498,PAYLOAD,2023-11-24 13:18:47,14.98333172,0.0002806,69.9985,152.635,270.2843,89.7995,2.6634e-05,2.25e-06,0.0,0 STARLINK-5498,1 55633U 23021F   23328.55471964  .00000225  00000-0  26634-4 0  9993,2 55633  69.9985 152.6350 0002806 270.2843  89.7995 14.98333172 43054,6950.183,96.107,573.998,570.098,0.0
55633.0,STARLINK-5498,PAYLOAD,2023-11-24 21:19:28,14.98333097,0.0002802,69.9985,151.7933,270.0654,90.0184,2.4572e-05,2e-06,0.0,0 STARLINK-5498,1 55633U 23021F   23328.88851914  .00000200  00000-0  24572-4 0  9998,2 55633  69.9985 151.7933 0002802 270.0654  90.0184 14.98333097 43102,6950.183,96.107,573.996,570.101,0.0
55633.0,STARLINK-5498,PAYLOAD,2023-11-25 13:20:48,14.98333427,0.0002865,69.9984,150.1101,268.9834,91.0997,0.00010022,1.103e-05,0.0,0 STARLINK-5498,1 55633U 23021F   23329.55611619  .00001103  00000-0  10022-3 0  9996,2 55633  69.9984 150.1101 0002865 268.9834  91.0997 14.98333427 43207,6950.182,96.107,574.039,570.056,0.0
55633.0,STARLINK-5498,PAYLOAD,2023-11-25 21:21:28,14.98337354,0.0002811,69.9984,149.2684,268.1465,91.9372,0.00014232,1.606e-05,0.0,0 STARLINK-5498,1 55633U 23021F   23329.88991243  .00001606  00000-0  14232-3 0  9991,2 55633  69.9984 149.2684 0002811 268.1465  91.9372 14.98337354 43259,6950.17,96.107,573.989,570.081,0.0
55633.0,STARLINK-5498,PAYLOAD,2023-11-26 13:22:49,14.98331853,0.0002651,69.9988,147.5858,263.0165,97.0692,4.9968e-05,5.03e-06,0.0,0 STARLINK-5498,1 55633U 23021F   23330.55751600  .00000503  00000-0  49968-4 0  9998,2 55633  69.9988 147.5858 0002651 263.0165  97.0692 14.98331853 43351,6950.187,96.107,573.895,570.21,0.0
